{"type": "FeatureCollection", "features": [ {"type": "Feature", "properties": {"norad_id": 33492, "name": "GOSAT (IBUKI)", "group": "resource", "lat": -9.07889672886106, "lon": 109.13641886008796, "alt_km": 673.2833997060307, "timestamp": "2025-12-25T09:48:51.942986+00:00", "meta": {"OBJECT_NAME": "GOSAT (IBUKI)", "OBJECT_ID": "2009-002A", "EPOCH": "2025-12-24T22:24:05.709888", "MEAN_MOTION": 14.67547953, "ECCENTRICITY": 0.0001027, "INCLINATION": 98.0771, "RA_OF_ASC_NODE": 107.3673, "ARG_OF_PERICENTER": 104.9727, "MEAN_ANOMALY": 255.1592, "EPHEMERIS_TYPE": 0, "CLASSIFICATION_TYPE": "U", "NORAD_CAT_ID": 33492, "ELEMENT_SET_NO": 999, "REV_AT_EPOCH": 90590, "BSTAR": 0.00016218, "MEAN_MOTION_DOT": 8.72e-06, "MEAN_MOTION_DDOT": 0}, "tle": {"line1": "1 33492U 09002A   25358.93339942  .00000872  00000+0  16218-3 0  9994", "line2": "2 33492  98.0771 107.3673 0001027 104.9727 255.1592 14.67547953905905"}}, "geometry": {"type": "Point", "coordinates": [109.13641886008796, -9.07889672886106]}}, {"type": "Feature", "properties": {"norad_id": 35681, "name": "DEIMOS-1", "group": "resource", "lat": 45.62977387859136, "lon": 151.4568865374588, "alt_km": 639.6344529493799, "timestamp": "2025-12-25T09:48:51.942996+00:00", "meta": {"OBJECT_NAME": "DEIMOS-1", "OBJECT_ID": "2009-041A", "EPOCH": "2025-12-25T04:43:17.307840", "MEAN_MOTION": 14.74969642, "ECCENTRICITY": 0.0002464, "INCLINATION": 97.7156, "RA_OF_ASC_NODE": 159.2207, "ARG_OF_PERICENTER": 60.1221, "MEAN_ANOMALY": 300.0233, "EPHEMERIS_TYPE": 0, "CLASSIFICATION_TYPE": "U", "NORAD_CAT_ID": 35681, "ELEMENT_SET_NO": 999, "REV_AT_EPOCH": 88123, "BSTAR": 7.6484e-05, "MEAN_MOTION_DOT": 4.67e-06, "MEAN_MOTION_DDOT": 0}, "tle": {"line1": "1 35681U 09041A   25359.19672810  .00000467  00000+0  76484-4 0  9994", "line2": "2 35681  97.7156 159.2207 0002464  60.1221 300.0233 14.74969642881239"}}, "geometry": {"type": "Point", "coordinates": [151.4568865374588, 45.62977387859136]}}, {"type": "Feature", "properties": {"norad_id": 35682, "name": "DUBAISAT-1", "group": "resource", "lat": -33.76409451452511, "lon": 135.2836473837804, "alt_km": 648.9502451985909, "timestamp": "2025-12-25T09:48:51.943007+00:00", "meta": {"OBJECT_NAME": "DUBAISAT-1", "OBJECT_ID": "2009-041B", "EPOCH": "2025-12-25T01:49:34.813632", "MEAN_MOTION": 14.74637004, "ECCENTRICITY": 0.000927, "INCLINATION": 97.9797, "RA_OF_ASC_NODE": 129.5748, "ARG_OF_PERICENTER": 270.0682, "MEAN_ANOMALY": 89.9465, "EPHEMERIS_TYPE": 0, "CLASSIFICATION_TYPE": "U", "NORAD_CAT_ID": 35682, "ELEMENT_SET_NO": 999, "REV_AT_EPOCH": 87943, "BSTAR": 0.00021011, "MEAN_MOTION_DOT": 1.352e-05, "MEAN_MOTION_DDOT": 0}, "tle": {"line1": "1 35682U 09041B   25359.07609738  .00001352  00000+0  21011-3 0  9990", "line2": "2 35682  97.9797 129.5748 0009270 270.0682  89.9465 14.74637004879431"}}, "geometry": {"type": "Point", "coordinates": [135.2836473837804, -33.76409451452511]}}, {"type": "Feature", "properties": {"norad_id": 35931, "name": "OCEANSAT-2", "group": "resource", "lat": -32.12704449988845, "lon": 3.9329978400091905, "alt_km": 892.8150107010761, "timestamp": "2025-12-25T09:48:51.943018+00:00", "meta": {"OBJECT_NAME": "OCEANSAT-2", "OBJECT_ID": "2009-051A", "EPOCH": "2025-12-25T04:49:18.630912", "MEAN_MOTION": 13.99622909, "ECCENTRICITY": 0.0015892, "INCLINATION": 98.2218, "RA_OF_ASC_NODE": 358.537, "ARG_OF_PERICENTER": 12.2791, "MEAN_ANOMALY": 347.876, "EPHEMERIS_TYPE": 0, "CLASSIFICATION_TYPE": "U", "NORAD_CAT_ID": 35931, "ELEMENT_SET_NO": 999, "REV_AT_EPOCH": 85499, "BSTAR": 1.0942e-05, "MEAN_MOTION_DOT": -2.1e-07, "MEAN_MOTION_DDOT": 0}, "tle": {"line1": "1 35931U 09051A   25359.20091008 -.00000021  00000+0  10942-4 0  9993", "line2": "2 35931  98.2218 358.5370 0015892  12.2791 347.8760 13.99622909854991"}}, "geometry": {"type": "Point", "coordinates": [3.9329978400091905, -32.12704449988845]}}, {"type": "Feature", "properties": {"norad_id": 35946, "name": "WORLDVIEW-2 (WV-2)", "group": "resource", "lat": 24.402122637272434, "lon": 66.43983350979755, "alt_km": 762.0762299705784, "timestamp": "2025-12-25T09:48:51.943028+00:00", "meta": {"OBJECT_NAME": "WORLDVIEW-2 (WV-2)", "OBJECT_ID": "2009-055A", "EPOCH": "2025-12-25T01:20:55.455360", "MEAN_MOTION": 14.37729357, "ECCENTRICITY": 0.0004716, "INCLINATION": 98.4772, "RA_OF_ASC_NODE": 69.9716, "ARG_OF_PERICENTER": 40.253, "MEAN_ANOMALY": 319.9006, "EPHEMERIS_TYPE": 0, "CLASSIFICATION_TYPE": "U", "NORAD_CAT_ID": 35946, "ELEMENT_SET_NO": 999, "REV_AT_EPOCH": 85062, "BSTAR": 7.4763e-05, "MEAN_MOTION_DOT": 1.81e-06, "MEAN_MOTION_DDOT": 0}, "tle": {"line1": "1 35946U 09055A   25359.05619740  .00000181  00000+0  74763-4 0  9992", "line2": "2 35946  98.4772  69.9716 0004716  40.2530 319.9006 14.37729357850623"}}, "geometry": {"type": "Point", "coordinates": [66.43983350979755, 24.402122637272434]}}, {"type": "Feature", "properties": {"norad_id": 36036, "name": "SMOS", "group": "resource", "lat": 27.3186096100844, "lon": 8.667381183370704, "alt_km": 757.9281936540146, "timestamp": "2025-12-25T09:48:51.943038+00:00", "meta": {"OBJECT_NAME": "SMOS", "OBJECT_ID": "2009-059A", "EPOCH": "2025-12-25T02:26:16.778112", "MEAN_MOTION": 14.3975208, "ECCENTRICITY": 0.0001052, "INCLINATION": 98.4382, "RA_OF_ASC_NODE": 183.967, "ARG_OF_PERICENTER": 83.1567, "MEAN_ANOMALY": 276.9741, "EPHEMERIS_TYPE": 0, "CLASSIFICATION_TYPE": "U", "NORAD_CAT_ID": 36036, "ELEMENT_SET_NO": 999, "REV_AT_EPOCH": 84840, "BSTAR": 0.00014263, "MEAN_MOTION_DOT": 4.03e-06, "MEAN_MOTION_DDOT": 0}, "tle": {"line1": "1 36036U 09059A   25359.10158308  .00000403  00000+0  14263-3 0  9996", "line2": "2 36036  98.4382 183.9670 0001052  83.1567 276.9741 14.39752080848405"}}, "geometry": {"type": "Point", "coordinates": [8.667381183370704, 27.3186096100844]}}, {"type": "Feature", "properties": {"norad_id": 36110, "name": "YAOGAN-7", "group": "resource", "lat": -81.56003572346256, "lon": -10.931373978917945, "alt_km": 629.415833834686, "timestamp": "2025-12-25T09:48:51.943049+00:00", "meta": {"OBJECT_NAME": "YAOGAN-7", "OBJECT_ID": "2009-069A", "EPOCH": "2025-12-25T02:06:25.735104", "MEAN_MOTION": 14.77749912, "ECCENTRICITY": 0.0023457, "INCLINATION": 98.0294, "RA_OF_ASC_NODE": 240.8003, "ARG_OF_PERICENTER": 239.1971, "MEAN_ANOMALY": 120.693, "EPHEMERIS_TYPE": 0, "CLASSIFICATION_TYPE": "U", "NORAD_CAT_ID": 36110, "ELEMENT_SET_NO": 999, "REV_AT_EPOCH": 86391, "BSTAR": 9.9545e-05, "MEAN_MOTION_DOT": 6.64e-06, "MEAN_MOTION_DDOT": 0}, "tle": {"line1": "1 36110U 09069A   25359.08779786  .00000664  00000+0  99545-4 0  9992", "line2": "2 36110  98.0294 240.8003 0023457 239.1971 120.6930 14.77749912863914"}}, "geometry": {"type": "Point", "coordinates": [-10.931373978917945, -81.56003572346256]}}, {"type": "Feature", "properties": {"norad_id": 36605, "name": "TANDEM-X", "group": "resource", "lat": -57.586235659963116, "lon": 172.71843823791997, "alt_km": 516.5506727323518, "timestamp": "2025-12-25T09:48:51.943059+00:00", "meta": {"OBJECT_NAME": "TANDEM-X", "OBJECT_ID": "2010-030A", "EPOCH": "2025-12-24T13:47:55.228992", "MEAN_MOTION": 15.19151393, "ECCENTRICITY": 0.00017737, "INCLINATION": 97.4454, "RA_OF_ASC_NODE": 3.7821, "ARG_OF_PERICENTER": 94.5594, "MEAN_ANOMALY": 265.5843, "EPHEMERIS_TYPE": 0, "CLASSIFICATION_TYPE": "U", "NORAD_CAT_ID": 36605, "ELEMENT_SET_NO": 999, "REV_AT_EPOCH": 86013, "BSTAR": 4.5827e-05, "MEAN_MOTION_DOT": 8.95e-06, "MEAN_MOTION_DDOT": 0}, "tle": {"line1": "1 36605U 10030A   25358.57494478  .00000895  00000+0  45827-4 0  9996", "line2": "2 36605  97.4454   3.7821 0001773  94.5594 265.5843 15.19151393860139"}}, "geometry": {"type": "Point", "coordinates": [172.71843823791997, -57.586235659963116]}}, {"type": "Feature", "properties": {"norad_id": 36795, "name": "CARTOSAT-2B", "group": "resource", "lat": -58.73378022214597, "lon": -144.99171197570496, "alt_km": 648.664423950333, "timestamp": "2025-12-25T09:48:51.943069+00:00", "meta": {"OBJECT_NAME": "CARTOSAT-2B", "OBJECT_ID": "2010-035A", "EPOCH": "2025-12-25T03:51:45.087264", "MEAN_MOTION": 14.78742095, "ECCENTRICITY": 0.0012546, "INCLINATION": 97.7831, "RA_OF_ASC_NODE": 47.7862, "ARG_OF_PERICENTER": 39.8312, "MEAN_ANOMALY": 320.3818, "EPHEMERIS_TYPE": 0, "CLASSIFICATION_TYPE": "U", "NORAD_CAT_ID": 36795, "ELEMENT_SET_NO": 999, "REV_AT_EPOCH": 83413, "BSTAR": 0.00010082, "MEAN_MOTION_DOT": 6.91e-06, "MEAN_MOTION_DDOT": 0}, "tle": {"line1": "1 36795U 10035A   25359.16093851  .00000691  00000+0  10082-3 0  9995", "line2": "2 36795  97.7831  47.7862 0012546  39.8312 320.3818 14.78742095834136"}}, "geometry": {"type": "Point", "coordinates": [-144.99171197570496, -58.73378022214597]}}, {"type": "Feature", "properties": {"norad_id": 36834, "name": "YAOGAN-10", "group": "resource", "lat": -47.98949276086942, "lon": -169.7487774293244, "alt_km": 622.3793643200142, "timestamp": "2025-12-25T09:48:51.943079+00:00", "meta": {"OBJECT_NAME": "YAOGAN-10", "OBJECT_ID": "2010-038A", "EPOCH": "2025-12-25T05:50:47.172192", "MEAN_MOTION": 14.8465648, "ECCENTRICITY": 0.0001446, "INCLINATION": 97.9132, "RA_OF_ASC_NODE": 18.9702, "ARG_OF_PERICENTER": 80.241, "MEAN_ANOMALY": 345.1435, "EPHEMERIS_TYPE": 0, "CLASSIFICATION_TYPE": "U", "NORAD_CAT_ID": 36834, "ELEMENT_SET_NO": 999, "REV_AT_EPOCH": 83139, "BSTAR": 0.00034093, "MEAN_MOTION_DOT": 2.83e-05, "MEAN_MOTION_DDOT": 0}, "tle": {"line1": "1 36834U 10038A   25359.24360153  .00002830  00000+0  34093-3 0  9998", "line2": "2 36834  97.9132  18.9702 0001446  80.2410 345.1435 14.84656480831399"}}, "geometry": {"type": "Point", "coordinates": [-169.7487774293244, -47.98949276086942]}}]}